[{"OBJECT_NAME":"EOS-4","OBJECT_ID":"2022-013A","EPOCH":"2026-03-08T11:43:14.619360","MEAN_MOTION":15.12745091,"ECCENTRICITY":0.0001929,"INCLINATION":97.5144,"RA_OF_ASC_NODE":75.6612,"ARG_OF_PERICENTER":90.8949,"MEAN_ANOMALY":269.2503,"EPHEMERIS_TYPE":0,"CLASSIFICATION_TYPE":"U","NORAD_CAT_ID":51656,"ELEMENT_SET_NO":999,"REV_AT_EPOCH":22426,"BSTAR":0.00016489167,"MEAN_MOTION_DOT":2.825e-5,"MEAN_MOTION_DDOT":0},{"OBJECT_NAME":"STARLINK-5701","OBJECT_ID":"2023-015AQ","EPOCH":"2026-03-09T22:00:01.999584","MEAN_MOTION":15.12694755,"ECCENTRICITY":0.00012786,"INCLINATION":42.9995,"RA_OF_ASC_NODE":337.5289,"ARG_OF_PERICENTER":234.4918,"MEAN_ANOMALY":21.7272,"EPHEMERIS_TYPE":0,"CLASSIFICATION_TYPE":"U","NORAD_CAT_ID":55487,"ELEMENT_SET_NO":999,"REV_AT_EPOCH":573,"BSTAR":0.0027927684,"MEAN_MOTION_DOT":0.00049878,"MEAN_MOTION_DDOT":0}]
